ONEWEB-0657             
1 55818U 23029Y   25208.88037276  .00000018  00000+0  13099-4 0  9995
2 55818  87.9230   9.4586 0001053  90.5188 269.6066 13.19726235116136
ONEWEB-0658             
1 55819U 23029Z   25208.87562731  .00000022  00000+0  23359-4 0  9999
2 55819  87.9236   9.3932 0002042  80.1714 279.9649 13.19726476116145
ONEWEB-0660             
1 55820U 23029AA  25208.86489131  .00000149  00000+0  36655-3 0  9994
2 55820  87.9065 354.2166 0002156  95.4924 264.6452 13.14501518116793
ONEWEB-0661             
1 55821U 23029AB  25208.89977621 -.00000177  00000+0 -51058-3 0  9991
2 55821  87.9064 354.2813 0002193  98.1377 262.0001 13.14501674116789
ONEWEB-0662             
1 55822U 23029AC  25208.85854647  .00000232  00000+0  59201-3 0  9998
2 55822  87.9068 354.2961 0002158  92.7913 267.3464 13.14501563116828
ONEWEB-0663             
1 55823U 23029AD  25208.86823157  .00000014  00000+0  24528-5 0  9996
2 55823  87.9302 339.0886 0002271  91.5791 268.5603 13.20841285118335
ONEWEB-0664             
1 55824U 23029AE  25208.87664905 -.00000003  00000+0 -40123-4 0  9990
2 55824  87.9296 339.1093 0002139 106.8571 253.2797 13.20771341118338
ONEWEB-0665             
1 55825U 23029AF  25208.89661349 -.00000208  00000+0 -59502-3 0  9999
2 55825  87.9066 354.2561 0002086  93.0431 267.0938 13.14503403116800
ONEWEB-0666             
1 55826U 23029AG  25209.09760178  .00000051  00000+0  92395-4 0  9995
2 55826  87.9294 339.0539 0001142 104.9938 255.1322 13.20772044119057
ONEWEB-0667             
1 55827U 23029AH  25208.86402434  .00000070  00000+0  14082-3 0  9995
2 55827  87.9286 339.0299 0002109  98.4329 261.7043 13.20771322118338
ONEWEB-0669             
1 55828U 23029AJ  25208.85928542  .00000056  00000+0  10472-3 0  9991
2 55828  87.9292 339.0683 0001888 120.3857 239.7463 13.20770771118335
ONEWEB-0670             
1 55829U 23029AK  25208.87440753  .00000061  00000+0  12941-3 0  9996
2 55829  87.9072 354.2798 0002143 101.8761 258.2609 13.14503618116828
ONEWEB-0671             
1 55830U 23029AL  25208.87089803  .00000038  00000+0  63600-4 0  9996
2 55830  87.9228   9.4531 0002062  94.8016 265.3352 13.19725546116129
ONEWEB-0672             
1 55831U 23029AM  25209.08180829  .00000044  00000+0  76671-4 0  9990
2 55831  87.9292 339.0100 0001613 103.9373 256.1940 13.20773232119046
ONEWEB-0673             
1 55832U 23029AN  25208.92302160  .00000068  00000+0  13761-3 0  9993
2 55832  87.9234   9.4061 0001923  87.3309 272.8044 13.19725231116136
ONEWEB-0674             
1 55833U 23029AP  25208.91882020  .00000161  00000+0  39983-3 0  9999
2 55833  87.9064 354.2559 0002266 104.2513 255.8868 13.14501709116815
ONEWEB-0675             
1 55834U 23029AQ  25208.86300609  .00000055  00000+0  10497-3 0  9993
2 55834  87.9226   9.4661 0001558  87.2138 272.9173 13.19725535116140
