[{"OBJECT_NAME":"ONEWEB-0657","OBJECT_ID":"2023-029Y","EPOCH":"2025-07-27T21:07:44.206464","MEAN_MOTION":13.19726235,"ECCENTRICITY":0.0001053,"INCLINATION":87.923,"RA_OF_ASC_NODE":9.4586,"ARG_OF_PERICENTER":90.5188,"MEAN_ANOMALY":269.6066,"EPHEMERIS_TYPE":0,"CLASSIFICATION_TYPE":"U","NORAD_CAT_ID":55818,"ELEMENT_SET_NO":999,"REV_AT_EPOCH":11613,"BSTAR":1.3099e-5,"MEAN_MOTION_DOT":1.8e-7,"MEAN_MOTION_DDOT":0},{"OBJECT_NAME":"ONEWEB-0658","OBJECT_ID":"2023-029Z","EPOCH":"2025-07-27T21:00:54.199584","MEAN_MOTION":13.19726476,"ECCENTRICITY":0.0002042,"INCLINATION":87.9236,"RA_OF_ASC_NODE":9.3932,"ARG_OF_PERICENTER":80.1714,"MEAN_ANOMALY":279.9649,"EPHEMERIS_TYPE":0,"CLASSIFICATION_TYPE":"U","NORAD_CAT_ID":55819,"ELEMENT_SET_NO":999,"REV_AT_EPOCH":11614,"BSTAR":2.3359e-5,"MEAN_MOTION_DOT":2.2e-7,"MEAN_MOTION_DDOT":0},{"OBJECT_NAME":"ONEWEB-0660","OBJECT_ID":"2023-029AA","EPOCH":"2025-07-27T20:45:26.609184","MEAN_MOTION":13.14501518,"ECCENTRICITY":0.0002156,"INCLINATION":87.9065,"RA_OF_ASC_NODE":354.2166,"ARG_OF_PERICENTER":95.4924,"MEAN_ANOMALY":264.6452,"EPHEMERIS_TYPE":0,"CLASSIFICATION_TYPE":"U","NORAD_CAT_ID":55820,"ELEMENT_SET_NO":999,"REV_AT_EPOCH":11679,"BSTAR":0.00036655,"MEAN_MOTION_DOT":1.49e-6,"MEAN_MOTION_DDOT":0},{"OBJECT_NAME":"ONEWEB-0661","OBJECT_ID":"2023-029AB","EPOCH":"2025-07-27T21:35:40.664544","MEAN_MOTION":13.14501674,"ECCENTRICITY":0.0002193,"INCLINATION":87.9064,"RA_OF_ASC_NODE":354.2813,"ARG_OF_PERICENTER":98.1377,"MEAN_ANOMALY":262.0001,"EPHEMERIS_TYPE":0,"CLASSIFICATION_TYPE":"U","NORAD_CAT_ID":55821,"ELEMENT_SET_NO":999,"REV_AT_EPOCH":11678,"BSTAR":-0.00051058,"MEAN_MOTION_DOT":-1.77e-6,"MEAN_MOTION_DDOT":0},{"OBJECT_NAME":"ONEWEB-0662","OBJECT_ID":"2023-029AC","EPOCH":"2025-07-27T20:36:18.415008","MEAN_MOTION":13.14501563,"ECCENTRICITY":0.0002158,"INCLINATION":87.9068,"RA_OF_ASC_NODE":354.2961,"ARG_OF_PERICENTER":92.7913,"MEAN_ANOMALY":267.3464,"EPHEMERIS_TYPE":0,"CLASSIFICATION_TYPE":"U","NORAD_CAT_ID":55822,"ELEMENT_SET_NO":999,"REV_AT_EPOCH":11682,"BSTAR":0.00059201,"MEAN_MOTION_DOT":2.32e-6,"MEAN_MOTION_DDOT":0},{"OBJECT_NAME":"ONEWEB-0663","OBJECT_ID":"2023-029AD","EPOCH":"2025-07-27T20:50:15.207648","MEAN_MOTION":13.20841285,"ECCENTRICITY":0.0002271,"INCLINATION":87.9302,"RA_OF_ASC_NODE":339.0886,"ARG_OF_PERICENTER":91.5791,"MEAN_ANOMALY":268.5603,"EPHEMERIS_TYPE":0,"CLASSIFICATION_TYPE":"U","NORAD_CAT_ID":55823,"ELEMENT_SET_NO":999,"REV_AT_EPOCH":11833,"BSTAR":2.4528e-6,"MEAN_MOTION_DOT":1.4e-7,"MEAN_MOTION_DDOT":0},{"OBJECT_NAME":"ONEWEB-0664","OBJECT_ID":"2023-029AE","EPOCH":"2025-07-27T21:02:22.477920","MEAN_MOTION":13.20771341,"ECCENTRICITY":0.0002139,"INCLINATION":87.9296,"RA_OF_ASC_NODE":339.1093,"ARG_OF_PERICENTER":106.8571,"MEAN_ANOMALY":253.2797,"EPHEMERIS_TYPE":0,"CLASSIFICATION_TYPE":"U","NORAD_CAT_ID":55824,"ELEMENT_SET_NO":999,"REV_AT_EPOCH":11833,"BSTAR":-4.0123e-5,"MEAN_MOTION_DOT":-3.0e-8,"MEAN_MOTION_DDOT":0},{"OBJECT_NAME":"ONEWEB-0665","OBJECT_ID":"2023-029AF","EPOCH":"2025-07-27T21:31:07.405536","MEAN_MOTION":13.14503403,"ECCENTRICITY":0.0002086,"INCLINATION":87.9066,"RA_OF_ASC_NODE":354.2561,"ARG_OF_PERICENTER":93.0431,"MEAN_ANOMALY":267.0938,"EPHEMERIS_TYPE":0,"CLASSIFICATION_TYPE":"U","NORAD_CAT_ID":55825,"ELEMENT_SET_NO":999,"REV_AT_EPOCH":11680,"BSTAR":-0.00059502,"MEAN_MOTION_DOT":-2.08e-6,"MEAN_MOTION_DDOT":0},{"OBJECT_NAME":"ONEWEB-0666","OBJECT_ID":"2023-029AG","EPOCH":"2025-07-28T02:20:32.793792","MEAN_MOTION":13.20772044,"ECCENTRICITY":0.0001142,"INCLINATION":87.9294,"RA_OF_ASC_NODE":339.0539,"ARG_OF_PERICENTER":104.9938,"MEAN_ANOMALY":255.1322,"EPHEMERIS_TYPE":0,"CLASSIFICATION_TYPE":"U","NORAD_CAT_ID":55826,"ELEMENT_SET_NO":999,"REV_AT_EPOCH":11905,"BSTAR":9.2395e-5,"MEAN_MOTION_DOT":5.1e-7,"MEAN_MOTION_DDOT":0},{"OBJECT_NAME":"ONEWEB-0667","OBJECT_ID":"2023-029AH","EPOCH":"2025-07-27T20:44:11.702976","MEAN_MOTION":13.20771322,"ECCENTRICITY":0.0002109,"INCLINATION":87.9286,"RA_OF_ASC_NODE":339.0299,"ARG_OF_PERICENTER":98.4329,"MEAN_ANOMALY":261.7043,"EPHEMERIS_TYPE":0,"CLASSIFICATION_TYPE":"U","NORAD_CAT_ID":55827,"ELEMENT_SET_NO":999,"REV_AT_EPOCH":11833,"BSTAR":0.00014082,"MEAN_MOTION_DOT":7.0e-7,"MEAN_MOTION_DDOT":0},{"OBJECT_NAME":"ONEWEB-0669","OBJECT_ID":"2023-029AJ","EPOCH":"2025-07-27T20:37:22.260288","MEAN_MOTION":13.20770771,"ECCENTRICITY":0.0001888,"INCLINATION":87.9292,"RA_OF_ASC_NODE":339.0683,"ARG_OF_PERICENTER":120.3857,"MEAN_ANOMALY":239.7463,"EPHEMERIS_TYPE":0,"CLASSIFICATION_TYPE":"U","NORAD_CAT_ID":55828,"ELEMENT_SET_NO":999,"REV_AT_EPOCH":11833,"BSTAR":0.00010472,"MEAN_MOTION_DOT":5.6e-7,"MEAN_MOTION_DDOT":0},{"OBJECT_NAME":"ONEWEB-0670","OBJECT_ID":"2023-029AK","EPOCH":"2025-07-27T20:59:08.810592","MEAN_MOTION":13.14503618,"ECCENTRICITY":0.0002143,"INCLINATION":87.9072,"RA_OF_ASC_NODE":354.2798,"ARG_OF_PERICENTER":101.8761,"MEAN_ANOMALY":258.2609,"EPHEMERIS_TYPE":0,"CLASSIFICATION_TYPE":"U","NORAD_CAT_ID":55829,"ELEMENT_SET_NO":999,"REV_AT_EPOCH":11682,"BSTAR":0.00012941,"MEAN_MOTION_DOT":6.1e-7,"MEAN_MOTION_DDOT":0},{"OBJECT_NAME":"ONEWEB-0671","OBJECT_ID":"2023-029AL","EPOCH":"2025-07-27T20:54:05.589792","MEAN_MOTION":13.19725546,"ECCENTRICITY":0.0002062,"INCLINATION":87.9228,"RA_OF_ASC_NODE":9.4531,"ARG_OF_PERICENTER":94.8016,"MEAN_ANOMALY":265.3352,"EPHEMERIS_TYPE":0,"CLASSIFICATION_TYPE":"U","NORAD_CAT_ID":55830,"ELEMENT_SET_NO":999,"REV_AT_EPOCH":11612,"BSTAR":6.36e-5,"MEAN_MOTION_DOT":3.8e-7,"MEAN_MOTION_DDOT":0},{"OBJECT_NAME":"ONEWEB-0672","OBJECT_ID":"2023-029AM","EPOCH":"2025-07-28T01:57:48.236256","MEAN_MOTION":13.20773232,"ECCENTRICITY":0.0001613,"INCLINATION":87.9292,"RA_OF_ASC_NODE":339.01,"ARG_OF_PERICENTER":103.9373,"MEAN_ANOMALY":256.194,"EPHEMERIS_TYPE":0,"CLASSIFICATION_TYPE":"U","NORAD_CAT_ID":55831,"ELEMENT_SET_NO":999,"REV_AT_EPOCH":11904,"BSTAR":7.6671e-5,"MEAN_MOTION_DOT":4.4e-7,"MEAN_MOTION_DDOT":0},{"OBJECT_NAME":"ONEWEB-0673","OBJECT_ID":"2023-029AN","EPOCH":"2025-07-27T22:09:09.066240","MEAN_MOTION":13.19725231,"ECCENTRICITY":0.0001923,"INCLINATION":87.9234,"RA_OF_ASC_NODE":9.4061,"ARG_OF_PERICENTER":87.3309,"MEAN_ANOMALY":272.8044,"EPHEMERIS_TYPE":0,"CLASSIFICATION_TYPE":"U","NORAD_CAT_ID":55832,"ELEMENT_SET_NO":999,"REV_AT_EPOCH":11613,"BSTAR":0.00013761,"MEAN_MOTION_DOT":6.8e-7,"MEAN_MOTION_DDOT":0},{"OBJECT_NAME":"ONEWEB-0674","OBJECT_ID":"2023-029AP","EPOCH":"2025-07-27T22:03:06.065280","MEAN_MOTION":13.14501709,"ECCENTRICITY":0.0002266,"INCLINATION":87.9064,"RA_OF_ASC_NODE":354.2559,"ARG_OF_PERICENTER":104.2513,"MEAN_ANOMALY":255.8868,"EPHEMERIS_TYPE":0,"CLASSIFICATION_TYPE":"U","NORAD_CAT_ID":55833,"ELEMENT_SET_NO":999,"REV_AT_EPOCH":11681,"BSTAR":0.00039983,"MEAN_MOTION_DOT":1.61e-6,"MEAN_MOTION_DDOT":0},{"OBJECT_NAME":"ONEWEB-0675","OBJECT_ID":"2023-029AQ","EPOCH":"2025-07-27T20:42:43.726176","MEAN_MOTION":13.19725535,"ECCENTRICITY":0.0001558,"INCLINATION":87.9226,"RA_OF_ASC_NODE":9.4661,"ARG_OF_PERICENTER":87.2138,"MEAN_ANOMALY":272.9173,"EPHEMERIS_TYPE":0,"CLASSIFICATION_TYPE":"U","NORAD_CAT_ID":55834,"ELEMENT_SET_NO":999,"REV_AT_EPOCH":11614,"BSTAR":0.00010497,"MEAN_MOTION_DOT":5.5e-7,"MEAN_MOTION_DDOT":0}]
